NORAD_CAT_ID,OBJECT_NAME,OBJECT_TYPE,EPOCH,MEAN_MOTION,ECCENTRICITY,INCLINATION,RA_OF_ASC_NODE,ARG_OF_PERICENTER,MEAN_ANOMALY,BSTAR,MEAN_MOTION_DOT,MEAN_MOTION_DDOT,TLE_LINE0,TLE_LINE1,TLE_LINE2,SEMIMAJOR_AXIS,PERIOD,APOGEE,PERIGEE,DECAYED
49176.0,STARLINK-3069,PAYLOAD,2023-03-25 11:05:20,14.9849626,0.0002767,69.9983,98.0941,265.0889,94.9955,0.0018365,0.00021983,0.0,0 STARLINK-3069,1 49176U 21082AY  23084.46204124  .00021983  00000-0  18365-2 0  9998,2 49176  69.9983  98.0941 0002767 265.0889  94.9955 14.98496260 85153,6949.679,96.096,573.467,569.621,0.0
49176.0,STARLINK-3069,PAYLOAD,2023-03-25 17:29:51,14.98493531,0.000232,69.9994,97.421,275.8237,84.2658,0.0017124,0.00020485,0.0,0 STARLINK-3069,1 49176U 21082AY  23084.72906398  .00020485  00000-0  17124-2 0  9997,2 49176  69.9994  97.4210 0002320 275.8237  84.2658 14.98493531 85192,6949.687,96.097,573.165,569.94,0.0
49176.0,STARLINK-3069,PAYLOAD,2023-03-26 04:42:56,14.98353977,0.0003189,69.9987,96.2445,279.8208,80.259,-3.2405e-05,-4.8e-06,0.0,0 STARLINK-3069,1 49176U 21082AY  23085.19648510 -.00000480  00000-0 -32405-4 0  9994,2 49176  69.9987  96.2445 0003189 279.8208  80.2590 14.98353977 85265,6950.119,96.105,574.2,569.767,0.0
49176.0,STARLINK-3069,PAYLOAD,2023-03-26 17:32:00,14.98347956,0.0002498,69.9993,94.898,265.9634,94.124,-9.4507e-05,-1.221e-05,0.0,0 STARLINK-3069,1 49176U 21082AY  23085.73055739 -.00001221  00000-0 -94507-4 0  9994,2 49176  69.9993  94.8980 0002498 265.9634  94.1240 14.98347956 85346,6950.137,96.106,573.739,570.266,0.0
49176.0,STARLINK-3069,PAYLOAD,2023-03-27 04:44:55,14.9836341,0.0003028,69.9975,93.7177,270.0921,89.9891,-0.00030685,-3.756e-05,0.0,0 STARLINK-3069,1 49176U 21082AY  23086.19786014 -.00003756  00000-0 -30685-3 0  9993,2 49176  69.9975  93.7177 0003028 270.0921  89.9891 14.98363410 85413,6950.09,96.105,574.059,569.85,0.0
49176.0,STARLINK-3069,PAYLOAD,2023-03-27 09:33:18,14.98361636,0.0003291,69.9976,93.2126,281.5157,78.5633,-0.00029054,-3.561e-05,0.0,0 STARLINK-3069,1 49176U 21082AY  23086.39813648 -.00003561  00000-0 -29054-3 0  9991,2 49176  69.9976  93.2126 0003291 281.5157  78.5633 14.98361636 85442,6950.095,96.105,574.247,569.673,0.0
49176.0,STARLINK-3069,PAYLOAD,2023-03-27 17:33:56,14.9842016,0.0003132,69.9977,92.3708,264.2084,95.8718,-0.0014781,-0.00017726,0.0,0 STARLINK-3069,1 49176U 21082AY  23086.73190448 -.00017726  00000-0 -14781-2 0  9993,2 49176  69.9977  92.3708 0003132 264.2084  95.8718 14.98420160 85499,6949.914,96.101,573.956,569.602,0.0
49176.0,STARLINK-3069,PAYLOAD,2023-03-28 06:23:01,14.98330834,0.0003181,69.9976,91.0241,267.4863,92.5932,5.3099e-05,5.41e-06,0.0,0 STARLINK-3069,1 49176U 21082AY  23087.26599192  .00000541  00000-0  53099-4 0  9993,2 49176  69.9976  91.0241 0003181 267.4863  92.5932 14.98330834 85579,6950.19,96.107,574.266,569.844,0.0
49176.0,STARLINK-3069,PAYLOAD,2023-03-28 09:35:17,14.9833124,0.0003169,69.9976,90.6874,267.5209,92.5587,5.6026e-05,5.76e-06,0.0,0 STARLINK-3069,1 49176U 21082AY  23087.39951158  .00000576  00000-0  56026-4 0  9992,2 49176  69.9976  90.6874 0003169 267.5209  92.5587 14.98331240 85597,6950.189,96.107,574.257,569.852,0.0
49176.0,STARLINK-3069,PAYLOAD,2023-03-28 17:35:58,14.98309054,0.0003057,69.9976,89.8458,272.6245,87.4564,0.00047131,5.532e-05,0.0,0 STARLINK-3069,1 49176U 21082AY  23087.73331939  .00005532  00000-0  47131-3 0  9992,2 49176  69.9976  89.8458 0003057 272.6245  87.4564 14.98309054 85640,6950.258,96.108,574.247,569.998,0.0
49176.0,STARLINK-3069,PAYLOAD,2023-03-29 06:25:02,14.98333189,0.0003227,69.9975,88.4989,268.4125,91.6665,6.2141e-05,6.49e-06,0.0,0 STARLINK-3069,1 49176U 21082AY  23088.26739007  .00000649  00000-0  62141-4 0  9992,2 49176  69.9975  88.4989 0003227 268.4125  91.6665 14.98333189 85726,6950.183,96.107,574.291,569.805,0.0
49176.0,STARLINK-3069,PAYLOAD,2023-03-29 09:37:18,14.98334038,0.0003211,69.9976,88.1623,268.5893,91.4898,7.018e-05,7.44e-06,0.0,0 STARLINK-3069,1 49176U 21082AY  23088.40090916  .00000744  00000-0  70180-4 0  9995,2 49176  69.9976  88.1623 0003211 268.5893  91.4898 14.98334038 85747,6950.18,96.107,574.277,569.814,0.0
49176.0,STARLINK-3069,PAYLOAD,2023-03-29 17:37:58,14.98331251,0.0003173,69.9976,87.3204,268.3402,91.7393,0.00010763,1.191e-05,0.0,0 STARLINK-3069,1 49176U 21082AY  23088.73470983  .00001191  00000-0  10763-3 0  9994,2 49176  69.9976  87.3204 0003173 268.3402  91.7393 14.98331251 85796,6950.189,96.107,574.259,569.849,0.0
49176.0,STARLINK-3069,PAYLOAD,2023-03-30 06:27:03,14.98334647,0.0003188,69.9976,85.9737,268.3836,91.6958,7.8174e-05,8.4e-06,0.0,0 STARLINK-3069,1 49176U 21082AY  23089.26878744  .00000840  00000-0  78174-4 0  9991,2 49176  69.9976  85.9737 0003188 268.3836  91.6958 14.98334647 85875,6950.179,96.107,574.259,569.828,0.0
49176.0,STARLINK-3069,PAYLOAD,2023-03-30 09:39:19,14.98335457,0.0003179,69.9977,85.637,268.4399,91.6396,8.5137e-05,9.23e-06,0.0,0 STARLINK-3069,1 49176U 21082AY  23089.40230649  .00000923  00000-0  85137-4 0  9992,2 49176  69.9977  85.6370 0003179 268.4399  91.6396 14.98335457 85899,6950.176,96.107,574.25,569.832,0.0
49176.0,STARLINK-3069,PAYLOAD,2023-03-31 06:29:04,14.98333463,0.0003103,69.9979,83.4485,268.1155,91.9649,5.017e-05,5.06e-06,0.0,0 STARLINK-3069,1 49176U 21082AY  23090.27018781  .00000506  00000-0  50170-4 0  9996,2 49176  69.9979  83.4485 0003103 268.1155  91.9649 14.98333463 86023,6950.182,96.107,574.204,569.891,0.0
49176.0,STARLINK-3069,PAYLOAD,2023-04-01 04:54:57,14.98328626,0.0002999,69.9983,81.0917,268.6659,91.4157,-1.9811e-05,-3.29e-06,0.0,0 STARLINK-3069,1 49176U 21082AY  23091.20483219 -.00000329  00000-0 -19811-4 0  9994,2 49176  69.9983  81.0917 0002999 268.6659  91.4157 14.98328626 86167,6950.197,96.107,574.147,569.978,0.0
49176.0,STARLINK-3069,PAYLOAD,2023-04-01 09:43:21,14.98330111,0.0002941,69.9984,80.5872,267.392,92.6902,3.3569e-06,-5.3e-07,0.0,0 STARLINK-3069,1 49176U 21082AY  23091.40511047 -.00000053  00000-0  33569-5 0  9997,2 49176  69.9984  80.5872 0002941 267.3920  92.6902 14.98330111 86192,6950.193,96.107,574.102,570.013,0.0
49176.0,STARLINK-3069,PAYLOAD,2023-04-01 16:07:53,14.98328198,0.0002923,69.9985,79.9138,267.7832,92.2992,1.8574e-05,1.29e-06,0.0,0 STARLINK-3069,1 49176U 21082AY  23091.67215161  .00000129  00000-0  18574-4 0  9995,2 49176  69.9985  79.9138 0002923 267.7832  92.2992 14.98328198 86238,6950.198,96.107,574.095,570.032,0.0
49176.0,STARLINK-3069,PAYLOAD,2023-04-02 06:33:06,14.98333546,0.0002959,69.9984,78.3987,266.9209,93.1612,6.4253e-05,6.74e-06,0.0,0 STARLINK-3069,1 49176U 21082AY  23092.27298668  .00000674  00000-0  64253-4 0  9995,2 49176  69.9984  78.3987 0002959 266.9209  93.1612 14.98333546 86322,6950.182,96.107,574.103,569.99,0.0
49176.0,STARLINK-3069,PAYLOAD,2023-04-02 08:09:14,14.98334088,0.0002949,69.9985,78.2303,267.1298,92.9524,6.9829e-05,7.4e-06,0.0,0 STARLINK-3069,1 49176U 21082AY  23092.33974611  .00000740  00000-0  69829-4 0  9999,2 49176  69.9985  78.2303 0002949 267.1298  92.9524 14.98334088 86336,6950.18,96.107,574.095,569.996,0.0
49176.0,STARLINK-3069,PAYLOAD,2023-04-02 22:34:26,14.98326855,0.0003301,69.9985,76.7158,265.8662,94.2119,7.0398e-05,7.47e-06,0.0,0 STARLINK-3069,1 49176U 21082AY  23092.94058896  .00000747  00000-0  70398-4 0  9994,2 49176  69.9985  76.7158 0003301 265.8662  94.2119 14.98326855 86428,6950.203,96.107,574.362,569.773,0.0
49176.0,STARLINK-3069,PAYLOAD,2023-04-03 04:58:59,14.98328492,0.0002948,69.9985,76.0422,267.8328,92.2493,6.5054e-05,6.83e-06,0.0,0 STARLINK-3069,1 49176U 21082AY  23093.20762953  .00000683  00000-0  65054-4 0  9992,2 49176  69.9985  76.0422 0002948 267.8328  92.2493 14.98328492 86468,6950.198,96.107,574.111,570.014,0.0
49176.0,STARLINK-3069,PAYLOAD,2023-04-03 08:11:15,14.9832864,0.000291,69.9988,75.7058,267.7739,92.3086,5.8195e-05,6.01e-06,0.0,0 STARLINK-3069,1 49176U 21082AY  23093.34114956  .00000601  00000-0  58195-4 0  9999,2 49176  69.9988  75.7058 0002910 267.7739  92.3086 14.98328640 86482,6950.197,96.107,574.085,570.04,0.0
49176.0,STARLINK-3069,PAYLOAD,2023-04-03 16:11:55,14.98328224,0.0002906,69.9988,74.8642,272.8613,87.2213,1.5534e-05,9.2e-07,0.0,0 STARLINK-3069,1 49176U 21082AY  23093.67495128  .00000092  00000-0  15534-4 0  9992,2 49176  69.9988  74.8642 0002906 272.8613  87.2213 14.98328224 86533,6950.198,96.107,574.083,570.044,0.0
49176.0,STARLINK-3069,PAYLOAD,2023-04-04 06:37:08,14.983332,0.0003093,69.9986,73.349,269.8737,90.2068,2.5527e-05,2.12e-06,0.0,0 STARLINK-3069,1 49176U 21082AY  23094.27578744  .00000212  00000-0  25527-4 0  9992,2 49176  69.9986  73.3490 0003093 269.8737  90.2068 14.98333200 86629,6950.183,96.107,574.198,569.898,0.0
49176.0,STARLINK-3069,PAYLOAD,2023-04-04 08:13:16,14.98334515,0.0003043,69.9986,73.1805,270.1044,89.9767,2.5916e-05,2.16e-06,0.0,0 STARLINK-3069,1 49176U 21082AY  23094.34254654  .00000216  00000-0  25916-4 0  9997,2 49176  69.9986  73.1805 0003043 270.1044  89.9767 14.98334515 86630,6950.179,96.107,574.159,569.929,0.0
49176.0,STARLINK-3069,PAYLOAD,2023-04-05 05:03:01,14.98325871,0.0002983,69.9988,70.991,267.9936,92.0881,2.8686e-05,2.49e-06,0.0,0 STARLINK-3069,1 49176U 21082AY  23095.21043198  .00000249  00000-0  28686-4 0  9996,2 49176  69.9988  70.9910 0002983 267.9936  92.0881 14.98325871 86761,6950.206,96.107,574.144,569.997,0.0
49176.0,STARLINK-3069,PAYLOAD,2023-04-05 08:15:17,14.98333635,0.0002773,69.9988,70.6546,268.0518,92.0324,-5.5687e-05,-7.57e-06,0.0,0 STARLINK-3069,1 49176U 21082AY  23095.34394907 -.00000757  00000-0 -55687-4 0  9994,2 49176  69.9988  70.6546 0002773 268.0518  92.0324 14.98333635 86789,6950.182,96.107,573.974,570.119,0.0
49176.0,STARLINK-3069,PAYLOAD,2023-04-05 22:40:29,14.9833282,0.0002969,69.9989,69.1397,269.469,90.6129,6.6224e-05,6.97e-06,0.0,0 STARLINK-3069,1 49176U 21082AY  23095.94478655  .00000697  00000-0  66224-4 0  9993,2 49176  69.9989  69.1397 0002969 269.4690  90.6129 14.98332820 86872,6950.184,96.107,574.113,569.986,0.0
